start=new Date('2022-05-20T00:00:00.000Z').valueOf();
sats=[{"OBJECT_TYPE":"PAYLOAD","CENTER_NAME":"EARTH","COUNTRY_CODE":"US","TIME_SYSTEM":"UTC","EPOCH":"2022-05-19T19:21:49.009536","ARG_OF_PERICENTER":"68.8219","OBJECT_NAME":"STARLINK-2155","BSTAR":"0.00000179040000","REF_FRAME":"TEME","RA_OF_ASC_NODE":"251.0524","MEAN_ANOMALY":"291.2935","MEAN_MOTION_DOT":"-0.00000255","APOAPSIS":"548.321","NORAD_CAT_ID":"48557","MEAN_MOTION_DDOT":"0.0000000000000","PERIAPSIS":"546.190","LAUNCH_DATE":"2021-05-15","SITE":"AFETR","MEAN_MOTION":"15.06386328","ELEMENT_SET_NO":"999","REV_AT_EPOCH":"5616","DECAY_DATE":null,"FILE":"3453451","RCS_SIZE":"LARGE","MEAN_ELEMENT_THEORY":"SGP4","CLASSIFICATION_TYPE":"U","TLE_LINE1":"1 48557U 21041E   22139.80681724 -.00000255  00000-0  17904-5 0  9999","EPHEMERIS_TYPE":"0","GP_ID":"203957054","PERIOD":"95.593","INCLINATION":"53.0545","TLE_LINE2":"2 48557  53.0545 251.0524 0001539  68.8219 291.2935 15.06386328 56165","ECCENTRICITY":"0.00015390","OBJECT_ID":"2021-041E","SEMIMAJOR_AXIS":"6925.390"},{"REF_FRAME":"TEME","MEAN_ANOMALY":"280.8888","RA_OF_ASC_NODE":"251.0653","MEAN_MOTION_DOT":"0.00000036","APOAPSIS":"548.205","LAUNCH_DATE":"2021-05-15","PERIAPSIS":"546.315","NORAD_CAT_ID":"48558","MEAN_MOTION_DDOT":"0.0000000000000","CENTER_NAME":"EARTH","OBJECT_TYPE":"PAYLOAD","COUNTRY_CODE":"US","TIME_SYSTEM":"UTC","ARG_OF_PERICENTER":"79.2254","OBJECT_NAME":"STARLINK-2166","BSTAR":"0.00002131000000","EPOCH":"2022-05-19T19:16:30.895104","EPHEMERIS_TYPE":"0","GP_ID":"203987412","PERIOD":"95.593","INCLINATION":"53.0557","TLE_LINE2":"2 48558  53.0557 251.0653 0001364  79.2254 280.8888 15.06384850 54856","OBJECT_ID":"2021-041F","SEMIMAJOR_AXIS":"6925.395","ECCENTRICITY":"0.00013640","REV_AT_EPOCH":"5485","SITE":"AFETR","ELEMENT_SET_NO":"999","MEAN_MOTION":"15.06384850","FILE":"3453812","RCS_SIZE":"LARGE","MEAN_ELEMENT_THEORY":"SGP4","DECAY_DATE":null,"TLE_LINE1":"1 48558U 21041F   22139.80313536  .00000036  00000-0  21310-4 0  9994","CLASSIFICATION_TYPE":"U"},{"CLASSIFICATION_TYPE":"U","TLE_LINE1":"1 48559U 21041G   22139.57364503  .00002942  00000-0  21632-3 0  9993","MEAN_MOTION":"15.06399557","SITE":"AFETR","ELEMENT_SET_NO":"999","REV_AT_EPOCH":"5612","DECAY_DATE":null,"FILE":"3453466","RCS_SIZE":"LARGE","MEAN_ELEMENT_THEORY":"SGP4","TLE_LINE2":"2 48559  53.0531 252.0833 0001968  67.3188 292.8008 15.06399557 56123","ECCENTRICITY":"0.00019680","OBJECT_ID":"2021-041G","SEMIMAJOR_AXIS":"6925.350","EPHEMERIS_TYPE":"0","GP_ID":"203958237","PERIOD":"95.592","INCLINATION":"53.0531","TIME_SYSTEM":"UTC","EPOCH":"2022-05-19T13:46:02.930592","OBJECT_NAME":"STARLINK-2167","ARG_OF_PERICENTER":"67.3188","BSTAR":"0.00021632000000","CENTER_NAME":"EARTH","OBJECT_TYPE":"PAYLOAD","COUNTRY_CODE":"US","MEAN_MOTION_DOT":"0.00002942","APOAPSIS":"548.578","NORAD_CAT_ID":"48559","MEAN_MOTION_DDOT":"0.0000000000000","PERIAPSIS":"545.852","LAUNCH_DATE":"2021-05-15","REF_FRAME":"TEME","RA_OF_ASC_NODE":"252.0833","MEAN_ANOMALY":"292.8008"},{"OBJECT_ID":"2021-041J","SEMIMAJOR_AXIS":"6925.243","ECCENTRICITY":"0.00012900","TLE_LINE2":"2 48561  53.0520 220.5538 0001290  84.7454  41.5986 15.06434455  1304","PERIOD":"95.590","INCLINATION":"53.0520","EPHEMERIS_TYPE":"0","GP_ID":"203988414","TLE_LINE1":"1 48561U 21041J   22139.91667824 -.00024557  00000-0 -16339-2 0  9991","CLASSIFICATION_TYPE":"U","FILE":"3453812","MEAN_ELEMENT_THEORY":"SGP4","RCS_SIZE":"LARGE","DECAY_DATE":null,"REV_AT_EPOCH":"130","ELEMENT_SET_NO":"999","SITE":"AFETR","MEAN_MOTION":"15.06434455","PERIAPSIS":"546.215","LAUNCH_DATE":"2021-05-15","MEAN_MOTION_DDOT":"0.0000000000000","NORAD_CAT_ID":"48561","MEAN_MOTION_DOT":"-0.00024557","APOAPSIS":"548.001","REF_FRAME":"TEME","RA_OF_ASC_NODE":"220.5538","MEAN_ANOMALY":"41.5986","OBJECT_NAME":"STARLINK-2186","ARG_OF_PERICENTER":"84.7454","BSTAR":"-0.00163390000000","EPOCH":"2022-05-19T22:00:00.999936","TIME_SYSTEM":"UTC","COUNTRY_CODE":"US","OBJECT_TYPE":"PAYLOAD","CENTER_NAME":"EARTH"},{"SITE":"AFETR","ELEMENT_SET_NO":"999","MEAN_MOTION":"15.06391461","REV_AT_EPOCH":"5571","DECAY_DATE":null,"FILE":"3453812","MEAN_ELEMENT_THEORY":"SGP4","RCS_SIZE":"LARGE","CLASSIFICATION_TYPE":"U","TLE_LINE1":"1 48562U 21041K   22139.78101362 -.00001243  00000-0 -64598-4 0  9996","GP_ID":"203986664","EPHEMERIS_TYPE":"0","PERIOD":"95.593","INCLINATION":"53.0545","TLE_LINE2":"2 48562  53.0545 251.1609 0001355  69.8460 290.2675 15.06391461 55715","ECCENTRICITY":"0.00013550","OBJECT_ID":"2021-041K","SEMIMAJOR_AXIS":"6925.375","OBJECT_TYPE":"PAYLOAD","CENTER_NAME":"EARTH","COUNTRY_CODE":"US","TIME_SYSTEM":"UTC","EPOCH":"2022-05-19T18:44:39.576768","BSTAR":"-0.00006459800000","OBJECT_NAME":"STARLINK-2187","ARG_OF_PERICENTER":"69.8460","RA_OF_ASC_NODE":"251.1609","MEAN_ANOMALY":"290.2675","REF_FRAME":"TEME","APOAPSIS":"548.178","MEAN_MOTION_DOT":"-0.00001243","NORAD_CAT_ID":"48562","MEAN_MOTION_DDOT":"0.0000000000000","PERIAPSIS":"546.301","LAUNCH_DATE":"2021-05-15"},{"DECAY_DATE":null,"FILE":"3453812","RCS_SIZE":"LARGE","MEAN_ELEMENT_THEORY":"SGP4","MEAN_MOTION":"15.06380728","SITE":"AFETR","ELEMENT_SET_NO":"999","REV_AT_EPOCH":"5571","CLASSIFICATION_TYPE":"U","TLE_LINE1":"1 48563U 21041L   22139.79944913 -.00002797  00000-0 -16906-3 0  9999","INCLINATION":"53.0541","PERIOD":"95.593","EPHEMERIS_TYPE":"0","GP_ID":"203986914","ECCENTRICITY":"0.00015620","SEMIMAJOR_AXIS":"6925.408","OBJECT_ID":"2021-041L","TLE_LINE2":"2 48563  53.0541 251.0846 0001562  71.4128 288.7030 15.06380728 55715","COUNTRY_CODE":"US","CENTER_NAME":"EARTH","OBJECT_TYPE":"PAYLOAD","EPOCH":"2022-05-19T19:11:12.404832","OBJECT_NAME":"STARLINK-2188","ARG_OF_PERICENTER":"71.4128","BSTAR":"-0.00016906000000","TIME_SYSTEM":"UTC","REF_FRAME":"TEME","MEAN_ANOMALY":"288.7030","RA_OF_ASC_NODE":"251.0846","MEAN_MOTION_DDOT":"0.0000000000000","NORAD_CAT_ID":"48563","PERIAPSIS":"546.191","LAUNCH_DATE":"2021-05-15","MEAN_MOTION_DOT":"-0.00002797","APOAPSIS":"548.354"},{"COUNTRY_CODE":"US","CENTER_NAME":"EARTH","OBJECT_TYPE":"PAYLOAD","EPOCH":"2022-05-19T15:49:30.124416","OBJECT_NAME":"STARLINK-2190","ARG_OF_PERICENTER":"72.2042","BSTAR":"-0.00008919300000","TIME_SYSTEM":"UTC","REF_FRAME":"TEME","MEAN_ANOMALY":"287.9120","RA_OF_ASC_NODE":"251.7170","MEAN_MOTION_DDOT":"0.0000000000000","NORAD_CAT_ID":"48564","LAUNCH_DATE":"2021-05-15","PERIAPSIS":"546.147","MEAN_MOTION_DOT":"-0.00001609","APOAPSIS":"548.344","DECAY_DATE":null,"MEAN_ELEMENT_THEORY":"SGP4","FILE":"3453478","RCS_SIZE":"LARGE","SITE":"AFETR","MEAN_MOTION":"15.06389590","ELEMENT_SET_NO":"999","REV_AT_EPOCH":"5609","CLASSIFICATION_TYPE":"U","TLE_LINE1":"1 48564U 21041M   22139.65937644 -.00001609  00000-0 -89193-4 0  9998","PERIOD":"95.593","INCLINATION":"53.0563","EPHEMERIS_TYPE":"0","GP_ID":"203957941","ECCENTRICITY":"0.00015860","OBJECT_ID":"2021-041M","SEMIMAJOR_AXIS":"6925.380","TLE_LINE2":"2 48564  53.0563 251.7170 0001586  72.2042 287.9120 15.06389590 56096"},{"CLASSIFICATION_TYPE":"U","TLE_LINE1":"1 48565U 21041N   22139.78838513 -.00004224  00000-0 -26497-3 0  9991","DECAY_DATE":null,"MEAN_ELEMENT_THEORY":"SGP4","FILE":"3453812","RCS_SIZE":"LARGE","SITE":"AFETR","ELEMENT_SET_NO":"999","MEAN_MOTION":"15.06384384","REV_AT_EPOCH":"5571","ECCENTRICITY":"0.00014290","SEMIMAJOR_AXIS":"6925.396","OBJECT_ID":"2021-041N","TLE_LINE2":"2 48565  53.0551 251.1353 0001429  76.7549 283.3599 15.06384384 55712","INCLINATION":"53.0551","PERIOD":"95.593","EPHEMERIS_TYPE":"0","GP_ID":"203987915","EPOCH":"2022-05-19T18:55:16.475232","OBJECT_NAME":"STARLINK-2191","ARG_OF_PERICENTER":"76.7549","BSTAR":"-0.00026497000000","TIME_SYSTEM":"UTC","COUNTRY_CODE":"US","CENTER_NAME":"EARTH","OBJECT_TYPE":"PAYLOAD","MEAN_MOTION_DDOT":"0.0000000000000","NORAD_CAT_ID":"48565","PERIAPSIS":"546.272","LAUNCH_DATE":"2021-05-15","MEAN_MOTION_DOT":"-0.00004224","APOAPSIS":"548.251","REF_FRAME":"TEME","RA_OF_ASC_NODE":"251.1353","MEAN_ANOMALY":"283.3599"},{"INCLINATION":"53.0545","PERIOD":"95.592","GP_ID":"203987164","EPHEMERIS_TYPE":"0","OBJECT_ID":"2021-041P","SEMIMAJOR_AXIS":"6925.365","ECCENTRICITY":"0.00015240","TLE_LINE2":"2 48566  53.0545 261.0217 0001524  75.1551 284.9607 15.06394570 55576","MEAN_ELEMENT_THEORY":"SGP4","FILE":"3453812","RCS_SIZE":"MEDIUM","DECAY_DATE":null,"REV_AT_EPOCH":"5557","SITE":"AFETR","ELEMENT_SET_NO":"999","MEAN_MOTION":"15.06394570","TLE_LINE1":"1 48566U 21041P   22139.81231769 -.00000191  00000-0  61096-5 0  9990","CLASSIFICATION_TYPE":"U","RA_OF_ASC_NODE":"261.0217","MEAN_ANOMALY":"284.9607","REF_FRAME":"TEME","LAUNCH_DATE":"2021-05-15","PERIAPSIS":"546.175","MEAN_MOTION_DDOT":"0.0000000000000","NORAD_CAT_ID":"48566","APOAPSIS":"548.286","MEAN_MOTION_DOT":"-0.00000191","COUNTRY_CODE":"US","CENTER_NAME":"EARTH","OBJECT_TYPE":"PAYLOAD","BSTAR":"0.00000610960000","ARG_OF_PERICENTER":"75.1551","OBJECT_NAME":"STARLINK-2214","EPOCH":"2022-05-19T19:29:44.248416","TIME_SYSTEM":"UTC"},{"MEAN_MOTION_DDOT":"0.0000000000000","NORAD_CAT_ID":"48567","PERIAPSIS":"546.100","LAUNCH_DATE":"2021-05-15","APOAPSIS":"548.247","MEAN_MOTION_DOT":"0.00004617","RA_OF_ASC_NODE":"260.9687","MEAN_ANOMALY":"279.5869","REF_FRAME":"TEME","EPOCH":"2022-05-19T19:47:00.117888","BSTAR":"0.00032856000000","ARG_OF_PERICENTER":"80.5296","OBJECT_NAME":"STARLINK-2215","TIME_SYSTEM":"UTC","COUNTRY_CODE":"US","OBJECT_TYPE":"PAYLOAD","CENTER_NAME":"EARTH","ECCENTRICITY":"0.00015500","SEMIMAJOR_AXIS":"6925.308","OBJECT_ID":"2021-041Q","TLE_LINE2":"2 48567  53.0554 260.9687 0001550  80.5296 279.5869 15.06413168 55576","PERIOD":"95.591","INCLINATION":"53.0554","GP_ID":"203987413","EPHEMERIS_TYPE":"0","CLASSIFICATION_TYPE":"U","TLE_LINE1":"1 48567U 21041Q   22139.82430692  .00004617  00000-0  32856-3 0  9994","DECAY_DATE":null,"RCS_SIZE":"LARGE","FILE":"3453812","MEAN_ELEMENT_THEORY":"SGP4","MEAN_MOTION":"15.06413168","SITE":"AFETR","ELEMENT_SET_NO":"999","REV_AT_EPOCH":"5557"}];
